{
  "id": 857291065,
  "type": "Feature",
  "properties": {
    "addr:city":"Laurel",
    "addr:full":"565 N 5Th Ave Laurel, Ms 39440",
    "addr:house_number":"565",
    "addr:housenumber":"565",
    "addr:phone":"+1 601-649-6374",
    "addr:postcode":"39440",
    "addr:road":"N 5Th Ave",
    "addr:state":"MS",
    "addr:street":"N 5Th Ave",
    "edtf:cessation":"uuuu",
    "edtf:inception":"uuuu",
    "geom:area":0.0,
    "geom:bbox":"-89.14321,31.69315,-89.14321,31.69315",
    "geom:latitude":31.69315,
    "geom:longitude":-89.14321,
    "iso:country":"US",
    "mz:hierarchy_label":1,
    "mz:is_current":1,
    "sg:address":"565 N 5th Ave",
    "sg:city":"Laurel",
    "sg:classifiers":[
        {
            "category":"Museum",
            "subcategory":"",
            "type":"Entertainment"
        }
    ],
    "sg:owner":"simplegeo",
    "sg:phone":"+1 601 649 6374",
    "sg:postcode":"39440",
    "sg:province":"MS",
    "sg:website":"www.lrma.org",
    "src:geom":"mudf",
    "wof:airports":[],
    "wof:belongsto":[],
    "wof:breaches":[],
    "wof:concordances":{
        "mudf:mid":8402800033,
        "sg:id":"SG_1hvppyf3otZ1lhSeaUD4Rc_31.695407_-89.131145@1294163950"
    },
    "wof:country":"US",
    "wof:created":1464126170,
    "wof:geomhash":"d5f34bc5d8f84b4d99fe66c99aa0833b",
    "wof:hierarchy":[],
    "wof:id":857291065,
    "wof:lastmodified":1534189806,
    "wof:name":"Lauren Rogers Museum Of Art",
    "wof:parent_id":-1,
    "wof:placetype":"venue",
    "wof:repo":"whosonfirst-data-venue-us-ms",
    "wof:superseded_by":[],
    "wof:supersedes":[],
    "wof:tags":[]
},
  "bbox": [
    -89.14321,
    31.69315,
    -89.14321,
    31.69315
],
  "geometry": {"coordinates":[-89.14321,31.69315],"type":"Point"}
}